STARLINK-36456          
1 67357U 26003Z   26016.91668981 -.01625902  76798-3 -37799-2 0  9996
2 67357  42.9984 167.5916 0001649 273.1912  67.8996 15.96266988  2351
STARLINK-36466          
1 67358U 26003AA  26016.91668981 -.01638939  77999-3 -37951-2 0  9995
2 67358  42.9984 167.5858 0001594 271.2729  71.9923 15.96341653  2350
STARLINK-36499          
1 67359U 26003AB  26016.91668981 -.01655660  79527-3 -38208-2 0  9991
2 67359  42.9984 167.5815 0001773 274.5154  70.4579 15.96405495  2357
STARLINK-36469          
1 67360U 26003AC  26016.91668981 -.01663578  80291-3 -38242-2 0  9998
2 67360  42.9984 167.5761 0001742 275.8961  71.2118 15.96477327  2356
STARLINK-35306          
1 67361U 26003AD  26016.91668981 -.01668233  80765-3 -38204-2 0  9996
2 67361  42.9981 167.5720 0001689 275.6124  73.1136 15.96547360  2297
STARLINK-36428          
1 67362U 26003AE  26016.91668981 -.01670476  81013-3 -38139-2 0  9993
2 67362  42.9982 167.5663 0001606 273.6728  77.1015 15.96603047  2354
SHIJIAN-29B (SJ-29B)    
1 67403U 25315C   26016.81427097 -.00000053  00000+0  00000+0 0  9996
2 67403   3.0142  99.1154 0000877 326.9914  56.3680  1.00271795   175
YAOGAN-50 01            
1 67433U 26006A   26016.17880840  .00000537  00000+0  12658-3 0  9997
2 67433 141.9984 200.7842 0164962 123.7171 237.9391 14.21837795   375
CZ-6A R/B               
1 67434U 26006B   26013.71733058  .00000541  00000+0  30805-4 0  9993
2 67434 142.0438 188.1412 0201725  82.0696 280.2897 14.62247694    24
HULIANWANG DIGUI 18A    
1 67435U 26007A   26016.41566249 -.00000116  00000+0  23935-4 0  9996
2 67435  50.0089 283.4039 0008428 279.5288  80.4659 13.92120172   393
HULIANWANG DIGUI 18B    
1 67436U 26007B   26016.41588649 -.00000116  00000+0  23911-4 0  9999
2 67436  50.0068 283.4030 0007500 267.7404  92.2637 13.92012828   396
HULIANWANG DIGUI 18C    
1 67437U 26007C   26016.99010464 -.00000042  00000+0  81475-4 0  9995
2 67437  50.0026 281.1061 0008191 276.4393  83.5574 13.92052922   472
